IRIDIUM 171             
1 43929U 19002H   25179.85355211  .00000060  00000+0  14476-4 0  9994
2 43929  86.3998 141.5540 0001997  81.4736 278.6686 14.34217943338316
IRIDIUM 170             
1 43930U 19002J   25179.93699530  .00000569  00000+0  86320-4 0  9991
2 43930  86.6114 141.2712 0002716  79.5140 280.6383 14.72259147347283
IRIDIUM 167             
1 43931U 19002K   25179.91697858  .00000024  00000+0  16702-5 0  9995
2 43931  86.3989 141.2799 0002133  74.4815 285.6616 14.34217638338328
IRIDIUM 181             
1 56726U 23068S   25180.15052046  .00000210  00000+0  56352-4 0  9991
2 56726  86.4519 204.2388 0001776  94.7388 265.4016 14.43311211111512
IRIDIUM 177             
1 56727U 23068T   25179.90137922  .00000538  00000+0  67325-4 0  9995
2 56727  86.1984 136.5705 0002365  84.8004 275.3486 14.80231023114108
IRIDIUM 174             
1 56728U 23068U   25179.92463917  .00000478  00000+0  71908-4 0  9999
2 56728  86.6120 141.3875 0003023  92.1971 267.9592 14.72256567114044
IRIDIUM 178             
1 56729U 23068V   25180.22848911  .00000335  00000+0  40576-4 0  9995
2 56729  86.6570 172.8089 0002707  90.9752 269.1780 14.80233991114151
IRIDIUM 179             
1 56730U 23068W   25179.95270471  .00000324  00000+0  39243-4 0  9992
2 56730  86.6810 180.8291 0002627  88.0983 272.0540 14.80234713114115
